XW-2E                   
1 40909U 15049L   22231.16905218  .00007553  00000+0  30977-3 0  9991
2 40909  97.4656 238.8157 0013793 112.0516 313.1566 15.24452293382964
XW-2F                   
1 40910U 15049M   22231.12003344  .00007522  00000+0  31337-3 0  9995
2 40910  97.4726 237.9163 0014623 112.6554 320.0613 15.23915978382729
XW-2B                   
1 40911U 15049N   22231.24927175  .00004699  00000+0  21958-3 0  9996
2 40911  97.4924 234.8044 0014243 131.6922 290.5230 15.20198551382398
KAITUO 1B               
1 40912U 15049P   22231.12532569  .00009003  00000+0  33977-3 0  9991
2 40912  97.4366 242.2690 0014639  83.1364 349.9295 15.27160745383313
TIANWANG 1A (TW-1A)     
1 40928U 15051D   22231.13167172  .00044575  00000+0  46110-3 0  9992
2 40928  97.0351 253.4284 0008596 134.8603 296.2396 15.64569051388021
LAPAN-A2                
1 40931U 15052B   22231.05382255  .00000548  00000+0 -12913-4 0  9997
2 40931   6.0031  82.5439 0013718 335.6860  24.2627 14.76842418372618
E-ST@R-II               
1 41459U 16025D   22231.00798205  .00008771  00000+0  36901-3 0  9992
2 41459  98.1923  40.8679 0142689  57.2203 304.2736 15.14778854346963
AAUSAT 4                
1 41460U 16025E   22231.06142546  .00013226  00000+0  48351-3 0  9994
2 41460  98.1828  47.7269 0121144  31.0407 329.8009 15.21489760347453
NUSAT-1 (FRESCO)        
1 41557U 16033B   22231.20367836  .00010847  00000+0  31145-3 0  9996
2 41557  97.3900 329.0692 0011491 146.8815 271.5125 15.35957549347013
BEESAT-4                
1 41619U 16040W   22230.89040391  .00017995  00000+0  57340-3 0  9997
2 41619  97.2119 279.8972 0007618 246.6027 113.4415 15.32569189330289
CAS-2T & KS-1Q          
1 41847U 16066G   22230.86910123  .00000644  00000+0  10599-3 0  9992
2 41847  98.5467 295.4579 0363858  23.3540 338.3716 14.38695198303322
NAYIF-1 (EO-88)         
1 42017U 17008BX  22230.60472700  .00017836  00000+0  50509-3 0  9991
2 42017  97.2640 295.8750 0005256  41.4206 318.7436 15.36321571306617
ZHUHAI-1 02 (CAS-4B)    
1 42759U 17034B   22231.19555074  .00002971  00000+0  18132-3 0  9994
2 42759  43.0186 346.7667 0010481 320.7059 109.0578 15.12274449285857
ZHUHAI-1 01 (CAS-4A)    
1 42761U 17034D   22231.08118056  .00003146  00000+0  19078-3 0  9995
2 42761  43.0188 346.1382 0010797 321.5243  29.5605 15.12361217285839
MAX VALIER SAT          
1 42778U 17036P   22230.82188377  .00009782  00000+0  36158-3 0  9999
2 42778  97.2009 269.7990 0012605 103.9068 256.3575 15.27835919286425
RADFXSAT (FOX-1B)       
1 43017U 17073E   22230.64055667  .00005056  00000+0  38009-3 0  9999
2 43017  97.6662 122.2795 0246963 344.5396  14.8366 14.81820226256325
FOX-1D (AO-92)          
1 43137U 18004AC  22230.42793837  .00012486  00000+0  42689-3 0  9995
2 43137  97.3647 305.0580 0008743 134.9183 225.2768 15.30373893255813
